IRIDIUM 63              
1 25286U 98021B   25235.25690264  .00000324  00000+0  10367-3 0  9992
2 25286  86.3938  53.9734 0002329  88.0582 272.0881 14.36585843433476
IRIDIUM 69              
1 25319U 98026A   25234.50808155  .00000331  00000+0  96786-4 0  9999
2 25319  86.3918  67.3778 0003575 129.1043 231.0475 14.41018468432610
IRIDIUM 71              
1 25320U 98026B   25235.27009173  .00000353  00000+0  10335-3 0  9998
2 25320  86.3922  61.7340 0001649 154.9773 205.1507 14.41201951433256
IRIDIUM 73              
1 25344U 98032C   25234.85208578  .00000472  00000+0  11242-3 0  9994
2 25344  86.4435  18.4912 0002800 100.1717 259.9804 14.51777531440233
IRIDIUM 82              
1 25467U 98051A   25235.04108370  .00021632  00000+0  56673-3 0  9990
2 25467  86.3605  76.7814 0081555  43.6291 317.1369 15.35137314434202
